{"type": "FeatureCollection", "features": [{"type": "Feature", "properties": {"norad_id": 28890, "name": "BEIJING 1", "group": "dmc", "lat": 27.511483062250782, "lon": 115.07942532684042, "alt_km": 682.6905622005197, "timestamp": "2025-12-17T21:39:45.375194+00:00", "meta": {"OBJECT_NAME": "BEIJING 1", "OBJECT_ID": "2005-043A", "EPOCH": "2025-12-17T14:58:17.782752", "MEAN_MOTION": 14.6337137, "ECCENTRICITY": 0.00155265, "INCLINATION": 98.2646, "RA_OF_ASC_NODE": 119.1416, "ARG_OF_PERICENTER": 126.8267, "MEAN_ANOMALY": 233.4362, "EPHEMERIS_TYPE": 0, "CLASSIFICATION_TYPE": "U", "NORAD_CAT_ID": 28890, "ELEMENT_SET_NO": 999, "REV_AT_EPOCH": 7409, "BSTAR": 8.6353571e-05, "MEAN_MOTION_DOT": 3.98e-06, "MEAN_MOTION_DDOT": 0}, "tle": {"line1": "1 28890U 05043A   25351.62381693  .00000398  00000+0  86354-4 0  9992", "line2": "2 28890  98.2646 119.1416 0015526 126.8267 233.4362 14.63371370 74096"}}, "geometry": {"type": "Point", "coordinates": [115.07942532684042, 27.511483062250782]}}, {"type": "Feature", "properties": {"norad_id": 33320, "name": "HUANJING 1A (HJ-1A)", "group": "dmc", "lat": 66.00644815850373, "lon": -37.59919158475324, "alt_km": 603.030585144279, "timestamp": "2025-12-17T21:39:45.375232+00:00", "meta": {"OBJECT_NAME": "HUANJING 1A (HJ-1A)", "OBJECT_ID": "2008-041A", "EPOCH": "2025-12-17T14:53:10.877856", "MEAN_MOTION": 14.83410961, "ECCENTRICITY": 0.00198863, "INCLINATION": 97.6536, "RA_OF_ASC_NODE": 339.7152, "ARG_OF_PERICENTER": 19.0249, "MEAN_ANOMALY": 341.1704, "EPHEMERIS_TYPE": 0, "CLASSIFICATION_TYPE": "U", "NORAD_CAT_ID": 33320, "ELEMENT_SET_NO": 999, "REV_AT_EPOCH": 93148, "BSTAR": 0.00016019991, "MEAN_MOTION_DOT": 1.268e-05, "MEAN_MOTION_DDOT": 0}, "tle": {"line1": "1 33320U 08041A   25351.62026479  .00001268  00000+0  16020-3 0  9994", "line2": "2 33320  97.6536 339.7152 0019886  19.0249 341.1704 14.83410961931488"}}, "geometry": {"type": "Point", "coordinates": [-37.59919158475324, 66.00644815850373]}}, {"type": "Feature", "properties": {"norad_id": 33321, "name": "HUANJING 1B (HJ-1B)", "group": "dmc", "lat": -79.51693216051959, "lon": 30.172011641456674, "alt_km": 648.7707831505086, "timestamp": "2025-12-17T21:39:45.375245+00:00", "meta": {"OBJECT_NAME": "HUANJING 1B (HJ-1B)", "OBJECT_ID": "2008-041B", "EPOCH": "2025-12-17T15:33:28.805184", "MEAN_MOTION": 14.82832485, "ECCENTRICITY": 0.00381449, "INCLINATION": 97.6397, "RA_OF_ASC_NODE": 343.4263, "ARG_OF_PERICENTER": 60.1026, "MEAN_ANOMALY": 300.3969, "EPHEMERIS_TYPE": 0, "CLASSIFICATION_TYPE": "U", "NORAD_CAT_ID": 33321, "ELEMENT_SET_NO": 999, "REV_AT_EPOCH": 93150, "BSTAR": 6.6546407e-05, "MEAN_MOTION_DOT": 4.94e-06, "MEAN_MOTION_DDOT": 0}, "tle": {"line1": "1 33321U 08041B   25351.64825006  .00000494  00000+0  66546-4 0  9999", "line2": "2 33321  97.6397 343.4263 0038144  60.1026 300.3969 14.82832485931508"}}, "geometry": {"type": "Point", "coordinates": [30.172011641456674, -79.51693216051959]}}, {"type": "Feature", "properties": {"norad_id": 33446, "name": "YAOGAN-4", "group": "dmc", "lat": -6.599038776814722, "lon": 101.02861363568033, "alt_km": 629.1397073450817, "timestamp": "2025-12-17T21:39:45.375255+00:00", "meta": {"OBJECT_NAME": "YAOGAN-4", "OBJECT_ID": "2008-061A", "EPOCH": "2025-12-17T12:43:27.984864", "MEAN_MOTION": 14.82696581, "ECCENTRICITY": 0.00132888, "INCLINATION": 97.9187, "RA_OF_ASC_NODE": 281.5825, "ARG_OF_PERICENTER": 306.5713, "MEAN_ANOMALY": 53.4277, "EPHEMERIS_TYPE": 0, "CLASSIFICATION_TYPE": "U", "NORAD_CAT_ID": 33446, "ELEMENT_SET_NO": 999, "REV_AT_EPOCH": 91874, "BSTAR": 0.00015271326, "MEAN_MOTION_DOT": 1.18e-05, "MEAN_MOTION_DDOT": 0}, "tle": {"line1": "1 33446U 08061A   25351.53018501  .00001180  00000+0  15271-3 0  9992", "line2": "2 33446  97.9187 281.5825 0013288 306.5713  53.4277 14.82696581918748"}}, "geometry": {"type": "Point", "coordinates": [101.02861363568033, -6.599038776814722]}}, {"type": "Feature", "properties": {"norad_id": 35681, "name": "DEIMOS-1", "group": "dmc", "lat": 6.922795106838141, "lon": -26.792382744994843, "alt_km": 647.7530457962484, "timestamp": "2025-12-17T21:39:45.375265+00:00", "meta": {"OBJECT_NAME": "DEIMOS-1", "OBJECT_ID": "2009-041A", "EPOCH": "2025-12-17T14:22:07.864896", "MEAN_MOTION": 14.74959554, "ECCENTRICITY": 0.00026436, "INCLINATION": 97.7141, "RA_OF_ASC_NODE": 151.975, "ARG_OF_PERICENTER": 71.3807, "MEAN_ANOMALY": 288.769, "EPHEMERIS_TYPE": 0, "CLASSIFICATION_TYPE": "U", "NORAD_CAT_ID": 35681, "ELEMENT_SET_NO": 999, "REV_AT_EPOCH": 88011, "BSTAR": 6.1337004e-05, "MEAN_MOTION_DOT": 3.65e-06, "MEAN_MOTION_DDOT": 0}, "tle": {"line1": "1 35681U 09041A   25351.59870214  .00000365  00000+0  61337-4 0  9996", "line2": "2 35681  97.7141 151.9750 0002643  71.3807 288.7690 14.74959554880114"}}, "geometry": {"type": "Point", "coordinates": [-26.792382744994843, 6.922795106838141]}}, {"type": "Feature", "properties": {"norad_id": 35683, "name": "UK-DMC 2", "group": "dmc", "lat": -20.381047978873063, "lon": -56.28130284450782, "alt_km": 648.7015278073341, "timestamp": "2025-12-17T21:39:45.375275+00:00", "meta": {"OBJECT_NAME": "UK-DMC 2", "OBJECT_ID": "2009-041C", "EPOCH": "2025-12-17T14:14:50.775936", "MEAN_MOTION": 14.75631791, "ECCENTRICITY": 0.00014738, "INCLINATION": 97.8554, "RA_OF_ASC_NODE": 126.3587, "ARG_OF_PERICENTER": 93.8282, "MEAN_ANOMALY": 266.3096, "EPHEMERIS_TYPE": 0, "CLASSIFICATION_TYPE": "U", "NORAD_CAT_ID": 35683, "ELEMENT_SET_NO": 999, "REV_AT_EPOCH": 87978, "BSTAR": 9.2904635e-05, "MEAN_MOTION_DOT": 5.85e-06, "MEAN_MOTION_DDOT": 0}, "tle": {"line1": "1 35683U 09041C   25351.59364324  .00000585  00000+0  92905-4 0  9997", "line2": "2 35683  97.8554 126.3587 0001473  93.8282 266.3096 14.75631791879789"}}, "geometry": {"type": "Point", "coordinates": [-56.28130284450782, -20.381047978873063]}}, {"type": "Feature", "properties": {"norad_id": 40715, "name": "DMC3-FM1", "group": "dmc", "lat": 70.07650120145561, "lon": -162.91820093782306, "alt_km": 607.3236832831044, "timestamp": "2025-12-17T21:39:45.375285+00:00", "meta": {"OBJECT_NAME": "DMC3-FM1", "OBJECT_ID": "2015-032A", "EPOCH": "2025-12-17T14:52:29.864640", "MEAN_MOTION": 14.85450097, "ECCENTRICITY": 0.00043348, "INCLINATION": 97.6694, "RA_OF_ASC_NODE": 218.6344, "ARG_OF_PERICENTER": 302.9502, "MEAN_ANOMALY": 57.1297, "EPHEMERIS_TYPE": 0, "CLASSIFICATION_TYPE": "U", "NORAD_CAT_ID": 40715, "ELEMENT_SET_NO": 999, "REV_AT_EPOCH": 56295, "BSTAR": 9.1508034e-05, "MEAN_MOTION_DOT": 7.37e-06, "MEAN_MOTION_DDOT": 0}, "tle": {"line1": "1 40715U 15032A   25351.61979010  .00000737  00000+0  91508-4 0  9990", "line2": "2 40715  97.6694 218.6344 0004334 302.9502  57.1297 14.85450097562954"}}, "geometry": {"type": "Point", "coordinates": [-162.91820093782306, 70.07650120145561]}}, {"type": "Feature", "properties": {"norad_id": 40716, "name": "DMC3-FM2", "group": "dmc", "lat": -48.15313525989986, "lon": -130.98532904925034, "alt_km": 615.5664535939759, "timestamp": "2025-12-17T21:39:45.375295+00:00", "meta": {"OBJECT_NAME": "DMC3-FM2", "OBJECT_ID": "2015-032B", "EPOCH": "2025-12-17T15:24:53.144064", "MEAN_MOTION": 14.85448448, "ECCENTRICITY": 0.00049878, "INCLINATION": 97.6751, "RA_OF_ASC_NODE": 220.1033, "ARG_OF_PERICENTER": 307.981, "MEAN_ANOMALY": 52.0955, "EPHEMERIS_TYPE": 0, "CLASSIFICATION_TYPE": "U", "NORAD_CAT_ID": 40716, "ELEMENT_SET_NO": 999, "REV_AT_EPOCH": 56295, "BSTAR": 2.5890157e-05, "MEAN_MOTION_DOT": 1.72e-06, "MEAN_MOTION_DDOT": 0}, "tle": {"line1": "1 40716U 15032B   25351.64228176  .00000172  00000+0  25890-4 0  9998", "line2": "2 40716  97.6751 220.1033 0004987 307.9810  52.0955 14.85448448562955"}}, "geometry": {"type": "Point", "coordinates": [-130.98532904925034, -48.15313525989986]}}, {"type": "Feature", "properties": {"norad_id": 40717, "name": "DMC3-FM3", "group": "dmc", "lat": -15.490448475269199, "lon": 39.847247901853216, "alt_km": 618.2111552090491, "timestamp": "2025-12-17T21:39:45.375305+00:00", "meta": {"OBJECT_NAME": "DMC3-FM3", "OBJECT_ID": "2015-032C", "EPOCH": "2025-12-17T15:56:04.988832", "MEAN_MOTION": 14.85436932, "ECCENTRICITY": 0.000433, "INCLINATION": 97.6804, "RA_OF_ASC_NODE": 221.7604, "ARG_OF_PERICENTER": 309.424, "MEAN_ANOMALY": 50.6592, "EPHEMERIS_TYPE": 0, "CLASSIFICATION_TYPE": "U", "NORAD_CAT_ID": 40717, "ELEMENT_SET_NO": 999, "REV_AT_EPOCH": 56296, "BSTAR": 7.489563e-05, "MEAN_MOTION_DOT": 5.94e-06, "MEAN_MOTION_DDOT": 0}, "tle": {"line1": "1 40717U 15032C   25351.66394663  .00000594  00000+0  74896-4 0  9994", "line2": "2 40717  97.6804 221.7604 0004330 309.4240  50.6592 14.85436932562969"}}, "geometry": {"type": "Point", "coordinates": [39.847247901853216, -15.490448475269199]}}]}